FacilityID,Type,Grp12_Jun03_Jun30,Grp13_Jul01_Jul21,Grp14_Jul22_Jul28,Grp15_Jul29_Jul31,Grp16_Aug01_Aug10,Grp17_Aug11,Grp18_Aug12_Sep27,Grp19_Sep28_Sep30,Organization,Full_Address,Address,City,State,ZipCode,Hours,MonHours,TueHours,WedHours,ThuHours,FriHours,SatHours,SunHours,Phone,AddressNumber,AddNumFrom,AddNumTo,AddressRange,Side,StPreDir,StName,StType,StDir,StAddr,X,Y,DisplayX,DisplayY,Xmin,Xmax,Ymin,Ymax,Address_or_Place,City_1,State_1
FaID.0001,Cooling Center,1.000000000000000,1.000000000000000,1.000000000000000,1.000000000000000,1.000000000000000,1.000000000000000,1.000000000000000,1.000000000000000,Justa Resource & Day Center +,1001 W. Jefferson St. Phoenix 85007,1001 W Jefferson St,Phoenix,AZ,85007,Mo-Su 1pm-6pm,01:00pm - 06:00pm,01:00pm - 06:00pm,01:00pm - 06:00pm,01:00pm - 06:00pm,01:00pm - 06:00pm,01:00pm - 06:00pm,01:00pm - 06:00pm,602-783-2175,1001,,,,,West,Jefferson,Street,,1001 West Jefferson Street,-112.086118269752006,33.446755457412003,-112.086118269752006,33.446755457412003,-112.087118269751997,-112.085118269752002,33.445755457411998,33.447755457412001,1001 W Jefferson St,,
FaID.0002,Cooling Center,1.000000000000000,1.000000000000000,1.000000000000000,1.000000000000000,1.000000000000000,1.000000000000000,1.000000000000000,1.000000000000000,City of Phoenix - Cholla Library,10050 E. Metro Pkwy. Phoenix 85051,10050 E Metro Pkwy,Phoenix,AZ,85051,"Mo-Sa 9am-10pm, Su 12pm-10pm",09:00am - 10:00pm,09:00am - 10:00pm,09:00am - 10:00pm,09:00am - 10:00pm,09:00am - 10:00pm,09:00am - 10:00pm,12:00pm - 06:00pm,602-534-2026,10050,,,,,North,Metro,Parkway,East,10050 North Metro Parkway East,-112.119616713431000,33.578228542384998,-112.119616713431000,33.578228542384998,-112.120616713431005,-112.118616713430995,33.577228542385001,33.579228542385003,10050 E Metro Pkwy,,
FaID.0003,Cooling Center,1.000000000000000,1.000000000000000,1.000000000000000,1.000000000000000,1.000000000000000,1.000000000000000,1.000000000000000,1.000000000000000,City of Phoenix - Ocotillo Library,102 W. Southern Ave. Phoenix 85041,102 W Southern Ave,Phoenix,AZ,85041,"Mo, Fr, Sa 9am-5pm; Tu-Th 10am-6pm*",09:00am - 05:00pm,10:00am - 06:00pm,10:00am - 06:00pm,10:00am - 06:00pm,09:00am - 05:00pm,09:00am - 05:00pm,closed,602-534-2026,102,,,,,West,Southern,Avenue,,102 West Southern Avenue,-112.074629697982999,33.392518047891997,-112.074629697982999,33.392518047891997,-112.075629697983004,-112.073629697982994,33.391518047891999,33.393518047892002,102 W Southern Ave,,
FaID.0004,Cooling Center,1.000000000000000,1.000000000000000,1.000000000000000,1.000000000000000,1.000000000000000,1.000000000000000,1.000000000000000,1.000000000000000,Society of St. Vincent de Paul - Phoenix Dining room+,1075 W. Jackson St. Phoenix 85007,1075 W Jackson St,Phoenix,AZ,85007,Mo-Su 1:30pm-5pm,01:30pm - 05:00pm,01:30pm - 05:00pm,01:30pm - 05:00pm,01:30pm - 05:00pm,01:30pm - 05:00pm,01:30pm - 05:00pm,01:30pm - 05:00pm,602-620-1892,1075,,,,,West,Jackson,Street,,1075 West Jackson Street,-112.086525043513006,33.444759600536997,-112.086525043513006,33.444759600536997,-112.087525043512997,-112.085525043513002,33.443759600537000,33.445759600537002,1075 W Jackson St,,
FaID.0005,Cooling Center,1.000000000000000,1.000000000000000,1.000000000000000,1.000000000000000,1.000000000000000,1.000000000000000,1.000000000000000,1.000000000000000,The Salvation Army - Estrella Mountain Corps+,11 N. 3rd Ave. Avondale 85323,11 N 3rd Ave,Avondale,AZ,85323,"Mo-Th 9am-1pm, Fr 10am-2pm*",09:00am - 01:00pm,09:00am - 01:00pm,09:00am - 01:00pm,09:00am - 01:00pm,10:00am - 02:00pm,closed,closed,602-267-4173,11,,,,,North,3rd,Avenue,,11 North 3rd Avenue,-112.352750800714006,33.435661924740003,-112.352750800714006,33.435661924740003,-112.353750800713996,-112.351750800714001,33.434661924739999,33.436661924740001,11 N 3rd Ave,,
FaID.0006,Cooling Center,1.000000000000000,1.000000000000000,1.000000000000000,1.000000000000000,1.000000000000000,1.000000000000000,1.000000000000000,1.000000000000000,Grace Lutheran Church+,1124 N. 3rd St. Phoenix 85004,1124 N 3rd St,Phoenix,AZ,85004,"Mo & Sa 11am-7pm, Th 11am-5:30****",11:00am - 07:00pm,closed,closed,11:00am - 05:30pm,closed,11:00am - 07:00pm,closed,951-454-3686,1124,,,,,North,3rd,Street,,1124 North 3rd Street,-112.069984698701006,33.460914252075000,-112.069984698701006,33.460914252075000,-112.070984698700997,-112.068984698701001,33.459914252075002,33.461914252074997,1124 N 3rd St,,
FaID.0007,Cooling Center,1.000000000000000,1.000000000000000,1.000000000000000,1.000000000000000,1.000000000000000,1.000000000000000,1.000000000000000,1.000000000000000,City of Phoenix - Burton Barr Central Library,1221 N. Central Ave. Phoenix 85004,1221 N Central Ave,Phoenix,AZ,85004,"Mo, Fr & Sa 9am-5pm; Tu-Th 9am-7pm; Su 1pm-5pm",09:00am - 05:00pm,09:00am - 07:00pm,09:00am - 07:00pm,09:00am - 07:00pm,09:00am - 05:00pm,09:00am - 05:00pm,01:00pm - 05:00pm,602-534-2026,1221,,,,,North,Central,Avenue,,1221 North Central Avenue,-112.072858098927995,33.462938733149002,-112.072858098927995,33.462938733149002,-112.073858098928000,-112.071858098928004,33.461938733148997,33.463938733149000,1221 N Central Ave,,
FaID.0009,Cooling Center,1.000000000000000,1.000000000000000,1.000000000000000,1.000000000000000,1.000000000000000,1.000000000000000,1.000000000000000,1.000000000000000,Chandler Community Center,125 E. Commonwealth Ave. Chandler 85225,125 E Commonwealth Ave,Chandler,AZ,85225,"Mo-Th 8am-7pm, Fr 8am-5pm, Sa 9am-1pm*",08:00am - 07:00pm,08:00am - 07:00pm,08:00am - 07:00pm,08:00am - 07:00pm,08:00am - 05:00pm,09:00am - 01:00pm,closed,480-782-4364,125,,,,,East,Commonwealth,Avenue,,125 East Commonwealth Avenue,-111.839800706058995,33.303061054695000,-111.839800706058995,33.303061054695000,-111.840800706058999,-111.838800706059004,33.302061054695002,33.304061054694998,125 E Commonwealth Ave,,
FaID.0010,Cooling Center,1.000000000000000,1.000000000000000,1.000000000000000,1.000000000000000,1.000000000000000,1.000000000000000,1.000000000000000,1.000000000000000,City of Phoenix - Harmon Library,1325 S. 5th Ave. Phoenix 85003,1325 S 5th Ave,Phoenix,AZ,85003,"Mo, Fr & Sa 9am-10pm; Tu-Th 10am-10pm, Su 12pm-10pm",09:00am - 10:00pm,10:00am - 10:00pm,10:00am - 10:00pm,10:00am - 10:00pm,09:00am - 10:00pm,09:00am - 10:00pm,12:00pm - 10:00pm,602-534-2026,1325,,,,,South,5th,Avenue,,1325 South 5th Avenue,-112.080099560357993,33.435750940551998,-112.080099560357993,33.435750940551998,-112.081099560357998,-112.079099560358003,33.434750940552000,33.436750940552002,1325 S 5th Ave,,
FaID.0011,Cooling Center,1.000000000000000,1.000000000000000,1.000000000000000,1.000000000000000,1.000000000000000,1.000000000000000,1.000000000000000,1.000000000000000,The Salvation Army - Phoenix Kroc Center+,1375 E. Broadway Rd. Phoenix 85040,1375 E Broadway Rd,Phoenix,AZ,85040,Mo-Fr 11am-5pm*,11:00am - 05:00pm,11:00am - 05:00pm,11:00am - 05:00pm,11:00am - 05:00pm,11:00am - 05:00pm,closed,closed,602-267-4173,1375,,,,,East,Broadway,Road,,1375 East Broadway Road,-112.052452523285993,33.406373627207003,-112.052452523285993,33.406373627207003,-112.053452523285998,-112.051452523286002,33.405373627206998,33.407373627207001,1375 E Broadway Rd,,
FaID.0012,Cooling Center,0.000000000000000,0.000000000000000,1.000000000000000,1.000000000000000,1.000000000000000,1.000000000000000,1.000000000000000,1.000000000000000,University Presbyterian Church+,139 E. Alameda Dr. Tempe 85282,139 E Alameda Dr ,Tempe,AZ,85282,"Mo-Tu 9am-7pm, We 9am-2pm, Th 9:30am-7pm, Sa 9am-7pm, Su 2pm-7pm",09:00am - 07:00pm,09:00am - 07:00pm,09:00am - 02:00pm,09:30am - 07:00pm,closed,09:00am - 07:00pm,02:00pm - 07:00pm,951-454-3686,139,,,,,East,Alameda,Drive,,139 East Alameda Drive,-111.936113802685995,33.399820739124003,-111.936113802685995,33.399820739124003,-111.937113802686000,-111.935113802686004,33.398820739123998,33.400820739124001,139 E Alameda Dr ,,
FaID.0019,Cooling Center,1.000000000000000,1.000000000000000,1.000000000000000,1.000000000000000,1.000000000000000,1.000000000000000,1.000000000000000,1.000000000000000,City of Phoenix - Century Library,1750 E. Highland Ave. Phoenix 85016,1750 E Highland Ave,Phoenix,AZ,85016,"Mo, Fr, Sa 9am-5pm; Tu-Th 10am-6pm*",09:00am - 05:00pm,10:00am - 06:00pm,10:00am - 06:00pm,10:00am - 06:00pm,09:00am - 05:00pm,09:00am - 05:00pm,closed,602-534-2026,1750,,,,,East,Highland,Avenue,,1750 East Highland Avenue,-112.043400486951001,33.505957049088003,-112.043400486951001,33.505957049088003,-112.044400486951005,-112.042400486950996,33.504957049087999,33.506957049088001,1750 E Highland Ave,,
FaID.0020,Cooling Center,1.000000000000000,1.000000000000000,1.000000000000000,1.000000000000000,1.000000000000000,1.000000000000000,1.000000000000000,1.000000000000000,City of Phoenix - Juniper Library,1825 W. Union Hills Dr. Phoenix 85027,1825 W Union Hills Dr,Phoenix,AZ,85027,"Mo, Fr, Sa 9am-5pm; Tu-Th 9am-6pm*",09:00am - 05:00pm,09:00am - 06:00pm,09:00am - 06:00pm,09:00am - 06:00pm,09:00am - 05:00pm,09:00am - 05:00pm,closed,602-534-2026,1825,,,,,West,Union Hills,Drive,,1825 West Union Hills Drive,-112.098467830613998,33.654265060859998,-112.098467830613998,33.654265060859998,-112.099467830614003,-112.097467830613994,33.653265060860001,33.655265060860003,1825 W Union Hills Dr,,
FaID.0021,Cooling Center,1.000000000000000,1.000000000000000,1.000000000000000,1.000000000000000,1.000000000000000,1.000000000000000,1.000000000000000,1.000000000000000,City of Glendale - Foothills Library,19055 N. 57th Ave. Glendale 85308,19055 N 57th Ave,Glendale,AZ,85308,"Mo & Th 10pm-8pm, Tu-We 10am-4pm, Fr 10am-6pm, Sa 10am-5pm, Su 1pm-5pm*",10:00pm - 08:00pm,10:00am - 04:00pm,10:00am - 04:00pm,10:00pm - 08:00pm,10:00am - 06:00pm,10:00am - 05:00pm,01:00pm - 05:00pm,623-930-2044,19055,,,,,North,57th,Avenue,,19055 North 57th Avenue,-112.180049313316005,33.659382045110000,-112.180049313316005,33.659382045110000,-112.181049313315995,-112.179049313316000,33.658382045110002,33.660382045109998,19055 N 57th Ave,,
FaID.0022,Cooling Center,1.000000000000000,1.000000000000000,1.000000000000000,1.000000000000000,1.000000000000000,1.000000000000000,1.000000000000000,1.000000000000000,City of Peoria - Sunrise Mountain Library,21109 N. 98th Ave. Peoria 85382,21109 N 98th Ave ,Peoria,AZ,85382,"Mo-Th 9am-7pm, Fr-Sa 11am-5pm*",09:00am - 07:00pm,09:00am - 07:00pm,09:00am - 07:00pm,09:00am - 07:00pm,11:00am - 05:00pm,11:00am - 05:00pm,closed,623-773-7770,21109,,,,,North,98th,Avenue,,21109 North 98th Avenue,-112.269234523302998,33.675355102715997,-112.269234523302998,33.675355102715997,-112.270234523303003,-112.268234523302993,33.674355102716000,33.676355102716002,21109 N 98th Ave ,,
FaID.0024,Cooling Center,1.000000000000000,1.000000000000000,1.000000000000000,1.000000000000000,1.000000000000000,1.000000000000000,1.000000000000000,1.000000000000000,City of Buckeye - Coyote Library,21699 W. Yuma Rd. Buckeye 85326 (Suite 116),21699 W Yuma Rd,Buckeye,AZ,85326,"Mo & We 10am-7pm, Tu & Th 9am-6pm, Fr-Sa 10am-5pm*",10:00am - 07:00pm,09:00am - 06:00pm,10:00am - 07:00pm,09:00am - 06:00pm,10:00am - 05:00pm,10:00am - 05:00pm,closed,623-349-6321,21699,,,,,W,Yuma,Rd,,21699 W Yuma Rd,-112.517107181491994,33.434343660918003,-112.517107181491994,33.434343660918003,-112.518107181491999,-112.516107181492004,33.433343660917998,33.435343660918001,21699 W Yuma Rd,,
FaID.0025,Cooling Center,1.000000000000000,1.000000000000000,1.000000000000000,1.000000000000000,1.000000000000000,1.000000000000000,1.000000000000000,1.000000000000000,City of Chandler - Downtown Library,22 S. Delaware St. Chandler 85225,22 S Delaware St,Chandler,AZ,85225,"Mo-We 9am-8pm, Th-Sa 9am-5pm, Su 1pm-5pm*",09:00am - 08:00pm,09:00am - 08:00pm,09:00am - 08:00pm,09:00am - 05:00pm,09:00am - 05:00pm,09:00am - 05:00pm,01:00pm - 05:00pm,480-782-4349,22,,,,,South,Delaware,Street,,22 South Delaware Street,-111.837781421765001,33.303416070204001,-111.837781421765001,33.303416070204001,-111.838781421765006,-111.836781421764996,33.302416070204004,33.304416070203999,22 S Delaware St,,
FaID.0026,Cooling Center,1.000000000000000,1.000000000000000,1.000000000000000,1.000000000000000,1.000000000000000,1.000000000000000,1.000000000000000,1.000000000000000,Circle the City - Downtown Family Health Clinic+,220 S. 12th Ave. Phoenix 85007,220 S 12th Ave,Phoenix,AZ,85007,"Mo-Fr 8am-8pm, Sa-Su 8am-5pm*",08:00am - 08:00pm,08:00am - 08:00pm,08:00am - 08:00pm,08:00am - 08:00pm,08:00am - 08:00pm,08:00am - 05:00pm,08:00am - 05:00pm,602-258-8282,220,,,,,South,12th,Avenue,,220 South 12th Avenue,-112.088362272870000,33.445152502249002,-112.088362272870000,33.445152502249002,-112.089362272870005,-112.087362272869996,33.444152502248997,33.446152502248999,220 S 12th Ave,,
FaID.0028,Cooling Center,1.000000000000000,1.000000000000000,1.000000000000000,1.000000000000000,1.000000000000000,1.000000000000000,1.000000000000000,1.000000000000000,City of Phoenix - Agave Library,23550 N. 36th Ave. Phoenix 85310,23550 N 36th Ave,Phoenix,AZ,85310,"Mo, Fr, Sa 9am-5pm; Tu-Th 9am-6pm*",09:00am - 05:00pm,09:00am - 06:00pm,09:00am - 06:00pm,09:00am - 06:00pm,09:00am - 05:00pm,09:00am - 05:00pm,closed,602-534-2026,23550,,,,,North,36th,Avenue,,23550 North 36th Avenue,-112.139512166445996,33.699528176198001,-112.139512166445996,33.699528176198001,-112.140512166446001,-112.138512166446006,33.698528176198003,33.700528176197999,23550 N 36th Ave,,
FaID.0029,Cooling Center,1.000000000000000,1.000000000000000,1.000000000000000,1.000000000000000,1.000000000000000,1.000000000000000,1.000000000000000,1.000000000000000,The Salvation Army - Mesa Corps+,241 E. 6th St. Mesa 85201,241 E 6th St,Mesa,AZ,85201,Mo-Fr 11am-5pm*,11:00am - 05:00pm,11:00am - 05:00pm,11:00am - 05:00pm,11:00am - 05:00pm,11:00am - 05:00pm,closed,closed,602-267-4173,241,,,,,East,6th,Street,,241 East 6th Street,-111.825970817276001,33.425767046132002,-111.825970817276001,33.425767046132002,-111.826970817276006,-111.824970817275997,33.424767046131997,33.426767046131999,241 E 6th St,,
FaID.0030,Cooling Center,1.000000000000000,1.000000000000000,1.000000000000000,1.000000000000000,1.000000000000000,1.000000000000000,1.000000000000000,1.000000000000000,Social Spin Foundation+,2418 E. Portland St. Phoenix 85008,2418 E Portland St,Phoenix,AZ,85008,"We 8am-6pm, Th 10am-6pm****",closed,closed,08:00am - 06:00pm,10:00am - 06:00pm,closed,closed,closed,720-808-8004,2418,,,,,East,Portland,Street,,2418 East Portland Street,-112.029461465790007,33.460625537420000,-112.029461465790007,33.460625537420000,-112.030461465789998,-112.028461465790002,33.459625537420003,33.461625537419998,2418 E Portland St,,
FaID.0032,Cooling Center,1.000000000000000,1.000000000000000,1.000000000000000,1.000000000000000,1.000000000000000,1.000000000000000,1.000000000000000,1.000000000000000,The Salvation Army - Family Services Center+,2707 E. Van Buren St. Bldg. 2 Phoenix 85008,2707 E Van Buren St,Phoenix,AZ,85008,Mo-Fr 11am-5pm*,11:00am - 05:00pm,11:00am - 05:00pm,11:00am - 05:00pm,11:00am - 05:00pm,11:00am - 05:00pm,closed,closed,602-267-4239,2707,,,,,East,Van Buren,Street,,2707 East Van Buren Street,-112.023726735275005,33.451122051780999,-112.023726735275005,33.451122051780999,-112.024726735274996,-112.022726735275000,33.450122051781001,33.452122051780997,2707 E Van Buren St,,
FaID.0033,Cooling Center,1.000000000000000,1.000000000000000,1.000000000000000,1.000000000000000,1.000000000000000,1.000000000000000,1.000000000000000,1.000000000000000,City of Phoenix - Saguaro Library,2808 N. 46th St. Phoenix 85008,2808 N 46th St,Phoenix,AZ,85008,"Mo, Fr, Sa 9am-5pm; Tu-Th 9am-6pm*",09:00am - 05:00pm,09:00am - 06:00pm,09:00am - 06:00pm,09:00am - 06:00pm,09:00am - 05:00pm,09:00am - 05:00pm,closed,602-534-2026,2808,,,,,North,46th,Street,,2808 North 46th Street,-111.982917595646995,33.478744823242998,-111.982917595646995,33.478744823242998,-111.983917595647000,-111.981917595647005,33.477744823243000,33.479744823243003,2808 N 46th St,,
FaID.0034,Cooling Center,1.000000000000000,1.000000000000000,1.000000000000000,1.000000000000000,1.000000000000000,1.000000000000000,1.000000000000000,1.000000000000000,City of Phoenix - Desert Broom Library,29710 N. Cave Creek Rd. Phoenix 85331,29710 N Cave Creek Rd,Phoenix,AZ,85331,"Mo, Fr, Sa 9am-5pm; Tu-Th 9am-6pm*",09:00am - 05:00pm,09:00am - 06:00pm,09:00am - 06:00pm,09:00am - 06:00pm,09:00am - 05:00pm,09:00am - 05:00pm,closed,602-534-2026,29710,,,,,North,Cave Creek,Road,,29710 North Cave Creek Road,-111.992253946136998,33.754459272024000,-111.992253946136998,33.754459272024000,-111.993253946137003,-111.991253946136993,33.753459272024003,33.755459272023998,29710 N Cave Creek Rd,,
FaID.0035,Cooling Center,1.000000000000000,1.000000000000000,1.000000000000000,1.000000000000000,1.000000000000000,1.000000000000000,1.000000000000000,0.000000000000000,You Matter Ministries - ""My Father's House"",3030 W. Van Buren St. Phoenix 85009,3030 W Van Buren St,Phoenix,AZ,85009,"Mo-Fr 10am-8pm, Sa 7am-4pm",10:00am - 08:00pm,10:00am - 08:00pm,10:00am - 08:00pm,10:00am - 08:00pm,10:00am - 08:00pm,07:00am - 04:00pm,closed,623-329-9915,3030,,,,,West,Van Buren,Street,,3030 West Van Buren Street,-112.125204760640003,33.451533645136003,-112.125204760640003,33.451533645136003,-112.126204760639993,-112.124204760639998,33.450533645135998,33.452533645136000,3030 W Van Buren St,,
FaID.0036,Cooling Center,1.000000000000000,1.000000000000000,1.000000000000000,1.000000000000000,1.000000000000000,1.000000000000000,1.000000000000000,1.000000000000000,City of Buckeye - Downtown Library,310 N. 6th St. Buckeye 85326,310 N 6th St,Buckeye,AZ,85326,"Mo & We 9am-6pm, Tu & Th 10am-7pm, Fr-Sa 10am-5pm*",09:00am - 06:00pm,10:00am - 07:00pm,09:00am - 06:00pm,10:00am - 07:00pm,10:00am - 05:00pm,10:00am - 05:00pm,closed,623-349-6321,310,,,,,N,6th,St,,310 N 6th St,-112.583178455281995,33.372821832714997,-112.583178455281995,33.372821832714997,-112.584178455282000,-112.582178455282005,33.371821832715000,33.373821832715002,310 N 6th St,,
FaID.0037,Cooling Center,1.000000000000000,1.000000000000000,1.000000000000000,1.000000000000000,1.000000000000000,1.000000000000000,1.000000000000000,1.000000000000000,City of Refuge+,3147 N. Black Canyon Hwy Phoenix 85015,3147 N Black Canyon Hwy,Phoenix,AZ,85015,"Mo-Fr 9am-5pm, Sa 9am-1pm",09:00am - 05:00pm,09:00am - 05:00pm,09:00am - 05:00pm,09:00am - 05:00pm,09:00am - 05:00pm,closed,09:00am - 01:00pm,602-487-4599,3147,,,,,North,Black Canyon,Highway,,3147 North Black Canyon Highway,-112.112464267812996,33.485764415695002,-112.112464267812996,33.485764415695002,-112.113464267813001,-112.111464267813005,33.484764415694997,33.486764415694999,3147 N Black Canyon Hwy,,
FaID.0038,Cooling Center,1.000000000000000,1.000000000000000,1.000000000000000,1.000000000000000,1.000000000000000,1.000000000000000,1.000000000000000,1.000000000000000,Phoenix Dream Center+,3210 Grand Ave. Phoenix 85017,3210 Grand Ave,Phoenix,AZ,85017,Mo-Su 6am-10pm,06:00am - 10:00pm,06:00am - 10:00pm,06:00am - 10:00pm,06:00am - 10:00pm,06:00am - 10:00pm,06:00am - 10:00pm,06:00am - 10:00pm,480-819-5580,3210,,,,,West,Grand,Avenue,,3210 West Grand Avenue,-112.127986714303006,33.490164202400997,-112.127986714303006,33.490164202400997,-112.128986714302997,-112.126986714303001,33.489164202401000,33.491164202401002,3210 Grand Ave,,
FaID.0039,Cooling Center,1.000000000000000,1.000000000000000,1.000000000000000,1.000000000000000,1.000000000000000,1.000000000000000,1.000000000000000,1.000000000000000,Terros Health - HIV Prevention,333 E. Indian School Rd. Phoenix 85012,333 E Indian School Rd,Phoenix,AZ,85012,Mo-Fr 9am-4:30pm*,09:00am - 04:30pm,09:00am - 04:30pm,09:00am - 04:30pm,09:00am - 04:30pm,09:00am - 04:30pm,closed,closed,602-302-7815,333,,,,,East,Indian School,Road,,333 East Indian School Road,-112.068222990291005,33.494544501180997,-112.068222990291005,33.494544501180997,-112.069222990290996,-112.067222990291000,33.493544501180999,33.495544501181001,333 E Indian School Rd,,
FaID.0040,Cooling Center,1.000000000000000,1.000000000000000,1.000000000000000,1.000000000000000,1.000000000000000,1.000000000000000,1.000000000000000,1.000000000000000,AZCEND+,345 S. California St. Chandler 85225,345 S California St,Chandler,AZ,85225,Mo-Fr 7:30am-4pm*,07:30am - 04:00pm,07:30am - 04:00pm,07:30am - 04:00pm,07:30am - 04:00pm,07:30am - 04:00pm,closed,closed,480-963-1423,345,,,,,South,California,Street,,345 South California Street,-111.843443481178994,33.298111163683998,-111.843443481178994,33.298111163683998,-111.844443481178999,-111.842443481179004,33.297111163684001,33.299111163684003,345 S California St,,
FaID.0041,Cooling Center,1.000000000000000,1.000000000000000,1.000000000000000,1.000000000000000,1.000000000000000,1.000000000000000,1.000000000000000,1.000000000000000,U.S. Vets - Supportive Services for Veteran Families,3507 N. Central Ave. Phoenix 85012 (Suite 300),3507 N Central Ave,Phoenix,AZ,85012,Mo-Fr 9am-3pm,09:00am - 03:00pm,09:00am - 03:00pm,09:00am - 03:00pm,09:00am - 03:00pm,09:00am - 03:00pm,closed,closed,480-487-2428,3507,,,,,North,Central,Avenue,,3507 North Central Avenue,-112.073303094167997,33.489294538037001,-112.073303094167997,33.489294538037001,-112.074303094168002,-112.072303094168007,33.488294538037003,33.490294538036999,3507 N Central Ave,,
FaID.0042,Cooling Center,1.000000000000000,1.000000000000000,1.000000000000000,1.000000000000000,1.000000000000000,1.000000000000000,1.000000000000000,1.000000000000000,City of Phoenix - Cesar Chavez Library,3635 W. Baseline Rd. Phoenix 85339,3635 W Baseline Rd,Phoenix,AZ,85339,"Mo, Fr, Sa 9am-5pm; Tu-Th 9am-6pm*",09:00am - 05:00pm,09:00am - 06:00pm,09:00am - 06:00pm,09:00am - 06:00pm,09:00am - 05:00pm,09:00am - 05:00pm,closed,602-534-2026,3635,,,,,West,Baseline,Road,,3635 West Baseline Road,-112.138302825455995,33.377114875883002,-112.138302825455995,33.377114875883002,-112.139302825455999,-112.137302825456004,33.376114875882998,33.378114875883000,3635 W Baseline Rd,,
FaID.0043,Cooling Center,1.000000000000000,1.000000000000000,1.000000000000000,1.000000000000000,1.000000000000000,1.000000000000000,1.000000000000000,1.000000000000000,City of Scottsdale - Civic Center Library,3839 N. Drinkwater Blvd. Scottsdale 85251,3839 N Drinkwater Blvd,Scottsdale,AZ,85251,"Mo-Th 10am-7pm, Fr & Sa 10am-5pm, Su 1pm-5pm*",10:00am - 07:00pm,10:00am - 07:00pm,10:00am - 07:00pm,10:00am - 07:00pm,10:00am - 05:00pm,10:00am - 05:00pm,01:00pm - 05:00pm,480-312-6225,3839,,,,,North,Drinkwater,Boulevard,,3839 North Drinkwater Boulevard,-111.921055294536998,33.492022344605999,-111.921055294536998,33.492022344605999,-111.922055294537003,-111.920055294536994,33.491022344606002,33.493022344605997,3839 N Drinkwater Blvd,,
FaID.0044,Cooling Center,1.000000000000000,1.000000000000000,1.000000000000000,1.000000000000000,1.000000000000000,1.000000000000000,1.000000000000000,1.000000000000000,Community Bridges (CBI) - SSVF Veterans programs +,4001 N. 3rd St. Phoenix 85012,4001 N 3rd St,Phoenix,AZ,85012,Mo-Fr 8am-5pm,08:00am - 05:00pm,08:00am - 05:00pm,08:00am - 05:00pm,08:00am - 05:00pm,08:00am - 05:00pm,closed,closed,480-220-8396,4001,,,,,North,3rd,Street,,4001 North 3rd Street,-112.068954562800002,33.493202181297001,-112.068954562800002,33.493202181297001,-112.069954562800007,-112.067954562799997,33.492202181297003,33.494202181296998,4001 N 3rd St,,
FaID.0045,Cooling Center,1.000000000000000,1.000000000000000,1.000000000000000,1.000000000000000,1.000000000000000,1.000000000000000,1.000000000000000,1.000000000000000,Chandler Nature Center,4050 E. Chandler Heights Rd. Chandler 85249,4050 E Chandler Heights Rd,Chandler,AZ,85249,"Mo-Th 8am-7pm, Fr 8am-5pm, Sa 8am-2pm*",08:00am - 07:00pm,08:00am - 07:00pm,08:00am - 07:00pm,08:00am - 07:00pm,08:00am - 05:00pm,08:00am - 02:00pm,closed,480-782-4364,4050,,,,,East,Chandler Heights,Road,,4050 East Chandler Heights Road,-111.770892241862995,33.234830476919001,-111.770892241862995,33.234830476919001,-111.771892241863000,-111.769892241863005,33.233830476919003,33.235830476918998,4050 E Chandler Heights Rd,,
FaID.0046,Cooling Center,1.000000000000000,1.000000000000000,1.000000000000000,1.000000000000000,1.000000000000000,1.000000000000000,1.000000000000000,1.000000000000000,The Salvation Army - Phoenix Maryvale Corps+,4318 W. Clarendon Ave. Phoenix 85031,4318 W Clarendon Ave,Phoenix,AZ,85031,Mo-Fr 10am-3pm*,10:00am - 03:00pm,10:00am - 03:00pm,10:00am - 03:00pm,10:00am - 03:00pm,10:00am - 03:00pm,closed,closed,602-267-4173,4318,,,,,West,Clarendon,Avenue,,4318 West Clarendon Avenue,-112.152275541867994,33.491834003241998,-112.152275541867994,33.491834003241998,-112.153275541867998,-112.151275541868003,33.490834003242000,33.492834003242002,4318 W Clarendon Ave,,
FaID.0047,Cooling Center,1.000000000000000,1.000000000000000,1.000000000000000,1.000000000000000,1.000000000000000,1.000000000000000,1.000000000000000,1.000000000000000,City of Phoenix - Ironwood Library,4333 E. Chandler Blvd. Phoenix 85048,4333 E Chandler Blvd,Phoenix,AZ,85048,"Mo, Fr, Sa 9am-5pm; Tu-Th 9am-6pm*",09:00am - 05:00pm,09:00am - 06:00pm,09:00am - 06:00pm,09:00am - 06:00pm,09:00am - 05:00pm,09:00am - 05:00pm,closed,602-534-2026,4333,,,,,East,Chandler,Boulevard,,4333 East Chandler Boulevard,-111.989546256135000,33.304917520520000,-111.989546256135000,33.304917520520000,-111.990546256135005,-111.988546256134995,33.303917520520002,33.305917520519998,4333 E Chandler Blvd,,
FaID.0048,Cooling Center,1.000000000000000,1.000000000000000,1.000000000000000,1.000000000000000,1.000000000000000,1.000000000000000,1.000000000000000,1.000000000000000,City of Phoenix - Palo Verde Library,4402 N. 51st Ave. Phoenix 85031,4402 N 51st Ave,Phoenix,AZ,85031,"Mo, Fr, Sa 9am-5pm; Tu-Th 9am-6pm*",09:00am - 05:00pm,09:00am - 06:00pm,09:00am - 06:00pm,09:00am - 06:00pm,09:00am - 05:00pm,09:00am - 05:00pm,closed,602-534-2026,4402,,,,,North,51st,Avenue,,4402 North 51st Avenue,-112.169833030630997,33.500442594988002,-112.169833030630997,33.500442594988002,-112.170833030631002,-112.168833030631006,33.499442594987997,33.501442594987999,4402 N 51st Ave,,
FaID.0049,Cooling Center,1.000000000000000,1.000000000000000,1.000000000000000,1.000000000000000,1.000000000000000,1.000000000000000,1.000000000000000,1.000000000000000,City of Phoenix - Mesquite Library,4525 E. Paradise Village Pkwy N. Phoenix 85032,4525 E Paradise Village Pkwy N,Phoenix,AZ,85032,"Mo, Fr, Sa 9am-5pm; Tu-Th 9am-6pm*",09:00am - 05:00pm,09:00am - 06:00pm,09:00am - 06:00pm,09:00am - 06:00pm,09:00am - 05:00pm,09:00am - 05:00pm,closed,602-534-2026,4525,,,,,East,Paradise Village,Parkway,North,4525 East Paradise Village Parkway North,-111.983681354664000,33.604683044182003,-111.983681354664000,33.604683044182003,-111.984681354664005,-111.982681354663995,33.603683044181999,33.605683044182001,4525 E Paradise Village Pkwy N,,
FaID.0050,Cooling Center,1.000000000000000,1.000000000000000,1.000000000000000,1.000000000000000,1.000000000000000,1.000000000000000,1.000000000000000,1.000000000000000,Justa Senior Resource Center,5533 W. Glendale Ave. Glendale 85301,5533 W Glendale Ave,Glendale,AZ,85301,Mo-Su 9am-7pm,09:00am - 07:00pm,09:00am - 07:00pm,09:00am - 07:00pm,09:00am - 07:00pm,09:00am - 07:00pm,09:00am - 07:00pm,09:00am - 07:00pm,602-783-2175,5533,,,,,West,Glendale,Avenue,,5533 West Glendale Avenue,-112.178906943732002,33.538272848138000,-112.178906943732002,33.538272848138000,-112.179906943731993,-112.177906943731998,33.537272848138002,33.539272848137998,5533 W Glendale Ave,,
FaID.0051,Cooling Center,1.000000000000000,1.000000000000000,1.000000000000000,1.000000000000000,1.000000000000000,1.000000000000000,1.000000000000000,1.000000000000000,City of Glendale - Foothills Recreation & Aquatics Center,5600 W. Union Hills Rd. Glendale 85308,5600 W Union Hills Rd,Glendale,AZ,85308,"Mo-Fr 5:30am-7:30pm, Sa 7am-5pm*",05:30am - 07:30pm,05:30am - 07:30pm,05:30am - 07:30pm,05:30am - 07:30pm,05:30am - 07:30pm,07:00am - 05:00pm,closed,623-930-2044,5600,,,,,West,Union Hills,Drive,,5600 West Union Hills Drive,-112.178434707307005,33.654926560657998,-112.178434707307005,33.654926560657998,-112.179434707306996,-112.177434707307000,33.653926560658000,33.655926560658003,5600 W Union Hills Rd,,
FaID.0052,Cooling Center,1.000000000000000,1.000000000000000,1.000000000000000,1.000000000000000,1.000000000000000,1.000000000000000,1.000000000000000,1.000000000000000,City of Phoenix - Yucca Library,5648 N. 15th Ave. Phoenix 85015,5648 N 15th Ave,Phoenix,AZ,85015,"Mo-Sa 9am-10pm, Su 12pm-10pm",09:00am - 10:00pm,09:00am - 10:00pm,09:00am - 10:00pm,09:00am - 10:00pm,09:00am - 10:00pm,09:00am - 10:00pm,12:00pm - 10:00pm,602-534-2026,5648,,,,,North,15th,Avenue,,5648 North 15th Avenue,-112.091578492937003,33.519912834056001,-112.091578492937003,33.519912834056001,-112.092578492936994,-112.090578492936999,33.518912834056003,33.520912834055999,5648 N 15th Ave,,
FaID.0053,Cooling Center,1.000000000000000,1.000000000000000,1.000000000000000,1.000000000000000,1.000000000000000,1.000000000000000,1.000000000000000,1.000000000000000,City of Glendale - Main Library,5959 W. Brown St. Glendale 85302,5959 W Brown St,Glendale,AZ,85302,"Mo & Th 10am-8pm, Tu & We 10am-4pm, Fr 10am-6pm, Sa 10am-5pm, Su 1pm-5pm*",10:00am - 08:00pm,10:00am - 04:00pm,10:00am - 04:00pm,10:00am - 08:00pm,10:00am - 06:00pm,10:00am - 05:00pm,01:00pm - 05:00pm,623-930-2044,5959,,,,,West,Brown,Street,,5959 West Brown Street,-112.187423460272996,33.577856595431001,-112.187423460272996,33.577856595431001,-112.188423460273000,-112.186423460273005,33.576856595431003,33.578856595430999,5959 W Brown St,,
FaID.0054,Cooling Center,1.000000000000000,1.000000000000000,1.000000000000000,1.000000000000000,1.000000000000000,1.000000000000000,1.000000000000000,1.000000000000000,City of Glendale - Adult Center,5970 W. Brown St. Glendale 85302,5970 W Brown St,Glendale,AZ,85302,Mo-Fr 8am-5pm*,08:00am - 05:00pm,08:00am - 05:00pm,08:00am - 05:00pm,08:00am - 05:00pm,08:00am - 05:00pm,closed,closed,623-930-2044,5970,,,,,West,Brown,Street,,5970 West Brown Street,-112.189385915263003,33.579487881426999,-112.189385915263003,33.579487881426999,-112.190385915262993,-112.188385915262998,33.578487881427002,33.580487881426997,5970 W Brown St,,
FaID.0055,Cooling Center,1.000000000000000,1.000000000000000,1.000000000000000,1.000000000000000,1.000000000000000,1.000000000000000,1.000000000000000,1.000000000000000,The Salvation Army - Glendale Corps+,6010 W. Northern Ave. Glendale 85301,6010 W Northern Ave,Glendale,AZ,85301,Mo-Fr 11am-5pm*,11:00am - 05:00pm,11:00am - 05:00pm,11:00am - 05:00pm,11:00am - 05:00pm,11:00am - 05:00pm,closed,closed,602-267-4173,6010,,,,,West,Northern,Avenue,,6010 West Northern Avenue,-112.189921183600006,33.553572168366003,-112.189921183600006,33.553572168366003,-112.190921183599997,-112.188921183600002,33.552572168365998,33.554572168366001,6010 W Northern Ave,,
FaID.0057,Cooling Center,1.000000000000000,1.000000000000000,1.000000000000000,1.000000000000000,1.000000000000000,1.000000000000000,1.000000000000000,1.000000000000000,City of Glendale - Heroes Regional Library,6075 N 83rd Ave. Glendale 85303,6075 N 83rd Ave,Glendale,AZ,85303,"Mo & Th 10pm-8pm, Tu-We 10am-4pm, Fr 10am-6pm, Sa 10am-5pm, Su 1pm-5pm*",10:00pm - 08:00pm,10:00am - 04:00pm,10:00am - 04:00pm,10:00pm - 08:00pm,10:00am - 06:00pm,10:00am - 05:00pm,01:00pm - 05:00pm,623-930-2044,6075,,,,,North,83rd,Avenue,,6075 North 83rd Avenue,-112.235902376582999,33.525095783883998,-112.235902376582999,33.525095783883998,-112.236902376583004,-112.234902376582994,33.524095783884000,33.526095783884003,6075 N 83rd Ave,,
FaID.0059,Cooling Center,1.000000000000000,1.000000000000000,1.000000000000000,1.000000000000000,1.000000000000000,1.000000000000000,1.000000000000000,1.000000000000000,The Salvation Army - Phoenix Citadel Corps+,628 N. 3rd Ave. Phoenix 85003,628 N 3rd Ave,Phoenix,AZ,85003,Mo-Fr 11am-5pm*,11:00am - 05:00pm,11:00am - 05:00pm,11:00am - 05:00pm,11:00am - 05:00pm,11:00am - 05:00pm,closed,closed,602-267-4173,628,,,,,North,3rd,Avenue,,628 North 3rd Avenue,-112.078024452589005,33.455296616748001,-112.078024452589005,33.455296616748001,-112.079024452588996,-112.077024452589001,33.454296616748003,33.456296616747998,628 N 3rd Ave,,
FaID.0061,Cooling Center,1.000000000000000,1.000000000000000,1.000000000000000,1.000000000000000,1.000000000000000,1.000000000000000,1.000000000000000,1.000000000000000,Society of St. Vincent de Paul - Mesa Dining Room+,67 W. Broadway Rd. Mesa 85210,67 W Broadway Rd,Mesa,AZ,85210,Mo-Su 9:30am-3pm,09:30am - 03:00pm,09:30am - 03:00pm,09:30am - 03:00pm,09:30am - 03:00pm,09:30am - 03:00pm,09:30am - 03:00pm,09:30am - 03:00pm,602-619-9411,67,,,,,West,Broadway,Road,,67 West Broadway Road,-111.833843855110004,33.407674456671003,-111.833843855110004,33.407674456671003,-111.834843855109995,-111.832843855109999,33.406674456670999,33.408674456671001,67 W Broadway Rd,,
FaID.0062,Cooling Center,1.000000000000000,1.000000000000000,1.000000000000000,1.000000000000000,1.000000000000000,1.000000000000000,1.000000000000000,1.000000000000000,City of Glendale - Velma Teague Library,7010 N. 58th Ave. Glendale 85301,7010 N 58th Ave,Glendale,AZ,85301,"Mo & Th 10pm-8pm, Tu-We 10am-4pm, Fr 10am-6pm, Sa 10am-5pm, Su 1pm-5pm*",10:00pm - 08:00pm,10:00am - 04:00pm,10:00am - 04:00pm,10:00pm - 08:00pm,10:00am - 06:00pm,10:00am - 05:00pm,01:00pm - 05:00pm,623-930-2044,7010,,,,,North,58th,Avenue,,7010 North 58th Avenue,-112.184114703993998,33.539248417848000,-112.184114703993998,33.539248417848000,-112.185114703994003,-112.183114703993994,33.538248417848003,33.540248417847998,7010 N 58th Ave,,
FaID.0063,Cooling Center,1.000000000000000,1.000000000000000,1.000000000000000,1.000000000000000,1.000000000000000,1.000000000000000,1.000000000000000,1.000000000000000,City of Phoenix - South Mountain Community Library,7050 S. 24th St. Phoenix 85042,7050 S 24th St,Phoenix,AZ,85042,Mo-Th 7:30am-8pm; Fr-Sa 7:30am-4pm*,07:30am - 08:00pm,07:30am - 08:00pm,07:30am - 08:00pm,07:30am - 08:00pm,07:30am - 04:00pm,07:30am - 04:00pm,closed,602-534-2026,7050,,,,,South,24th,Street,,7050 South 24th Street,-112.031297521680003,33.382366222042002,-112.031297521680003,33.382366222042002,-112.032297521679993,-112.030297521679998,33.381366222041997,33.383366222042000,7050 S 24th St,,
FaID.0066,Cooling Center,1.000000000000000,1.000000000000000,1.000000000000000,1.000000000000000,1.000000000000000,1.000000000000000,1.000000000000000,1.000000000000000,City of Scottsdale - Appaloosa Library,7377 E. Silverstone Dr. Scottsdale 85255,7377 E Silverstone Dr,Scottsdale,AZ,85255,"Mo-Th 10am-7pm, Fr & Sa 10am-5pm, Su 1pm-5pm*",10:00am - 07:00pm,10:00am - 07:00pm,10:00am - 07:00pm,10:00am - 07:00pm,10:00am - 05:00pm,10:00am - 05:00pm,01:00pm - 05:00pm,480-312-6419,7377,,,,,East,Silverstone,Drive,,7377 East Silverstone Drive,-111.922325236687001,33.695144063651000,-111.922325236687001,33.695144063651000,-111.923325236687006,-111.921325236686997,33.694144063651002,33.696144063650998,7377 E Silverstone Dr,,
FaID.0067,Cooling Center,1.000000000000000,1.000000000000000,1.000000000000000,1.000000000000000,1.000000000000000,1.000000000000000,1.000000000000000,1.000000000000000,City of Phoenix - Acacia Library,750 E. Townley Ave. Phoenix 85020,750 E Townley Ave,Phoenix,AZ,85020,"Mo, Fr, Sa 9am-5pm; Tu-Th 10am-6pm*",09:00am - 05:00pm,10:00am - 06:00pm,10:00am - 06:00pm,10:00am - 06:00pm,09:00am - 05:00pm,09:00am - 05:00pm,closed,602-534-2026,750,,,,,East,Townley,Avenue,,750 East Townley Avenue,-112.063074490085000,33.566166899895997,-112.063074490085000,33.566166899895997,-112.064074490085005,-112.062074490084996,33.565166899895999,33.567166899896002,750 E Townley Ave,,
FaID.0068,Cooling Center,1.000000000000000,1.000000000000000,1.000000000000000,1.000000000000000,1.000000000000000,1.000000000000000,1.000000000000000,1.000000000000000,City of Phoenix - Desert Sage Library,7602 W. Encanto Blvd. Phoenix 85035,7602 W Encanto Blvd,Phoenix,AZ,85035,"Mo, Fr, Sa 9am-5pm; Tu-Th 10am-6pm*",09:00am - 05:00pm,10:00am - 06:00pm,10:00am - 06:00pm,10:00am - 06:00pm,09:00am - 05:00pm,09:00am - 05:00pm,closed,602-534-2026,7602,,,,,West,Encanto,Boulevard,,7602 West Encanto Boulevard,-112.223597491264002,33.473933946095997,-112.223597491264002,33.473933946095997,-112.224597491264007,-112.222597491263997,33.472933946095999,33.474933946096002,7602 W Encanto Blvd,,
FaID.0069,Cooling Center,1.000000000000000,1.000000000000000,1.000000000000000,1.000000000000000,1.000000000000000,1.000000000000000,1.000000000000000,1.000000000000000,City of Peoria - Community Center,8335 W. Jefferson St. Peoria 85345,8335 W Jefferson St,Peoria,AZ,85345,"Mo-Th 8am-9pm, Fr 8am-5pm, Sa 8am-3pm*",08:00am - 09:00pm,08:00am - 09:00pm,08:00am - 09:00pm,08:00am - 09:00pm,08:00am - 05:00pm,08:00am - 03:00pm,closed,623-773-7770,8335,,,,,West,Jefferson,Street,,8335 West Jefferson Street,-112.238924555592007,33.578998504010002,-112.238924555592007,33.578998504010002,-112.239924555591998,-112.237924555592002,33.577998504010999,33.579998504010000,8335 W Jefferson St,,
FaID.0070,Cooling Center,1.000000000000000,1.000000000000000,1.000000000000000,1.000000000000000,1.000000000000000,1.000000000000000,1.000000000000000,1.000000000000000,City of Peoria - Main Library,8463 W. Monroe St. Peoria 85345,8463 W Monroe St,Peoria,AZ,85345,"Mo-Th 9am-7pm, Fr-Sa 11am-5pm*",09:00am - 07:00pm,09:00am - 07:00pm,09:00am - 07:00pm,09:00am - 07:00pm,11:00am - 05:00pm,11:00am - 05:00pm,closed,623-773-7770,8463,,,,,West,Monroe,Street,,8463 West Monroe Street,-112.241303758808002,33.576955415111001,-112.241303758808002,33.576955415111001,-112.242303758808006,-112.240303758807997,33.575955415110997,33.577955415110999,8463 W Monroe St,,
FaID.0071,Cooling Center,1.000000000000000,1.000000000000000,1.000000000000000,1.000000000000000,1.000000000000000,1.000000000000000,1.000000000000000,1.000000000000000,City of Peoria - Rio Vista Recreation Center,8866 W. Thunderbird Rd. Peoria 85381,8866 W Thunderbird Rd,Peoria,AZ,85381,"Mo-Fr 5am-8pm, Sa 9am-4pm, Su 11am-6pm***",05:00am - 08:00pm,05:00am - 08:00pm,05:00am - 08:00pm,05:00am - 08:00pm,05:00am - 08:00pm,09:00am - 04:00pm,11:00am - 06:00pm,623-773-7770,8866,,,,,West,Thunderbird,Road,,8866 West Thunderbird Road,-112.246079264323001,33.614740992717003,-112.246079264323001,33.614740992717003,-112.247079264323006,-112.245079264322996,33.613740992716998,33.615740992717001,8866 W Thunderbird Rd,,
FaID.0072,Cooling Center,1.000000000000000,1.000000000000000,1.000000000000000,1.000000000000000,1.000000000000000,1.000000000000000,1.000000000000000,1.000000000000000,Grace Family Care+,920 E. Madison St. Phoenix 85034 (Suite 100),920 E Madison St,Phoenix,AZ,85034,Mo-Fr 12pm-5pm,12:00pm - 05:00pm,12:00pm - 05:00pm,12:00pm - 05:00pm,12:00pm - 05:00pm,12:00pm - 05:00pm,closed,closed,480-272-7723,920,,,,,East,Madison,Street,,920 East Madison Street,-112.061152184411000,33.445885667318997,-112.061152184411000,33.445885667318997,-112.062152184411005,-112.060152184410995,33.444885667318999,33.446885667319002,920 E Madison St,,
FaID.0073,Cooling Center,1.000000000000000,1.000000000000000,1.000000000000000,1.000000000000000,1.000000000000000,1.000000000000000,1.000000000000000,1.000000000000000,Arizona Complete Health Avondale Resource Center,995 E. Riley Dr. Avondale 85323,995 E Riley Dr,Avondale,AZ,85323,"Mo & Th 8am-6pm, Tu & We 8am-7pm, Fr 9am-5pm, Sa & Su 10am-4pm",08:00am - 06:00pm,08:00am - 07:00pm,08:00am - 07:00pm,08:00am - 06:00pm,09:00am - 05:00pm,10:00am - 04:00pm,10:00am - 04:00pm,623-333-2783,995,983,1041,983-1041,R,E,Riley,Dr,,995 E Riley Dr,-112.337347817413004,33.438909133609997,-112.337347817413004,33.438909133609997,-112.338347817412995,-112.336347817412999,33.437909133609999,33.439909133610001,995 E Riley Dr,,
FaID.0074,Respite Center,1.000000000000000,1.000000000000000,1.000000000000000,1.000000000000000,1.000000000000000,1.000000000000000,1.000000000000000,1.000000000000000,Resurrection Street Ministry Day Respite Center+,1109 E. Main St. Mesa 85203 (Suite 105-107),1109 E Main St,Mesa,AZ,85203,Mo-Sa 10am-7pm,10:00am - 07:00pm,10:00am - 07:00pm,10:00am - 07:00pm,10:00am - 07:00pm,10:00am - 07:00pm,10:00am - 07:00pm,closed,480-906-6426,1109,,,,,East,Main,Street,,1109 East Main Street,-111.807092089115997,33.414782520110997,-111.807092089115997,33.414782520110997,-111.808092089116002,-111.806092089116007,33.413782520110999,33.415782520111001,1109 E Main St,,
FaID.0075,Respite Center,1.000000000000000,1.000000000000000,1.000000000000000,1.000000000000000,1.000000000000000,1.000000000000000,1.000000000000000,1.000000000000000,First Institutional Baptist Church - Harrison-Johnson Cooling Center,1141 E Jefferson St. Phoenix 85034,1141 E Jefferson St,Phoenix,AZ,85034,"Tu, We & Fr 12pm-6pm*",closed,12:00pm - 06:00pm,12:00pm - 06:00pm,closed,12:00pm - 06:00pm,closed,closed,951-454-3686,1141,,,,,East,Jefferson,Street,,1141 East Jefferson Street,-112.057402120930007,33.446792673061999,-112.057402120930007,33.446792673061999,-112.058402120929998,-112.056402120930002,33.445792673062002,33.447792673061997,1141 E Jefferson St,,
FaID.0076,Respite Center,1.000000000000000,1.000000000000000,1.000000000000000,1.000000000000000,1.000000000000000,1.000000000000000,1.000000000000000,1.000000000000000,City of Phoenix - Burton Barr Central Library Café,1221 N. Central Ave. Phoenix 85004,1221 N Central Ave,Phoenix,AZ,85004,Open 24/7,12:00am - 11:59pm,12:00am - 11:59pm,12:00am - 11:59pm,12:00am - 11:59pm,12:00am - 11:59pm,12:00am - 11:59pm,12:00am - 11:59pm,602-534-2026,1221,,,,,North,Central,Avenue,,1221 North Central Avenue,-112.072858098927995,33.462938733149002,-112.072858098927995,33.462938733149002,-112.073858098928000,-112.071858098928004,33.461938733148997,33.463938733149000,1221 N Central Ave,,
FaID.0077,Respite Center,1.000000000000000,1.000000000000000,1.000000000000000,1.000000000000000,1.000000000000000,1.000000000000000,1.000000000000000,1.000000000000000,Community of Hope/A Loving Heart +,1320 N. 15th St. Phoenix 85006,1320 N 15th St,Phoenix,AZ,85006,"Mo-Th 12pm-6pm, Fr 12pm-4pm",12:00pm - 06:00pm,12:00pm - 06:00pm,12:00pm - 06:00pm,12:00pm - 06:00pm,12:00pm - 04:00pm,closed,closed,602-772-2253,1320,,,,,North,15th,Street,,1320 North 15th Street,-112.050362076634002,33.463465326216003,-112.050362076634002,33.463465326216003,-112.051362076634007,-112.049362076633997,33.462465326215998,33.464465326216001,1320 N 15th St,,
FaID.0078,Respite Center,1.000000000000000,1.000000000000000,1.000000000000000,1.000000000000000,1.000000000000000,1.000000000000000,1.000000000000000,1.000000000000000,First Church United Church of Christ+,1407 N. 2nd St. Phoenix 85004,1407 N 2nd St,Phoenix,AZ,85004,"Tu, We, Fr & Su 11am-7pm*",closed,11:00am - 07:00pm,11:00am - 07:00pm,closed,11:00am - 07:00pm,closed,11:00am - 07:00pm,951-454-3686,1407,,,,,North,2nd,Street,,1407 North 2nd Street,-112.070702776345996,33.464326315309997,-112.070702776345996,33.464326315309997,-112.071702776346001,-112.069702776346006,33.463326315309999,33.465326315310001,1407 N 2nd St,,
FaID.0079,Respite Center,1.000000000000000,1.000000000000000,1.000000000000000,1.000000000000000,1.000000000000000,1.000000000000000,1.000000000000000,1.000000000000000,First United Methodist Church - Mesa,15 E. First Ave. Mesa 85210,15 E First Ave,Mesa,AZ,85210,"Mo, Tu, Th 12pm-3pm*",12:00pm - 03:00pm,12:00pm - 03:00pm,closed,12:00pm - 03:00pm,closed,closed,closed,480-969-5577,15,,,,,East,1st,Avenue,,15 East 1st Avenue,-111.830562759111999,33.412702341291002,-111.830562759111999,33.412702341291002,-111.831562759112003,-111.829562759111994,33.411702341290997,33.413702341291000,15 E First Ave,,
FaID.0080,Respite Center,1.000000000000000,1.000000000000000,1.000000000000000,1.000000000000000,1.000000000000000,1.000000000000000,1.000000000000000,1.000000000000000,Redemption Church Gilbert+,1820 W. Elliot Rd. Gilbert 85233,1820 W Elliot Rd,Gilbert,AZ,85233,Mo-Th 9am-4pm*****,09:00am - 04:00pm,09:00am - 04:00pm,09:00am - 04:00pm,09:00am - 04:00pm,closed,closed,closed,480-632-2220,1820,,,,,W,Elliot,Rd,,1820 W Elliot Rd,-111.829299354846000,33.351063459808998,-111.829299354846000,33.351063459808998,-111.830299354846005,-111.828299354845996,33.350063459809000,33.352063459809003,1820 W Elliot Rd,,
FaID.0081,Respite Center,1.000000000000000,1.000000000000000,1.000000000000000,1.000000000000000,1.000000000000000,1.000000000000000,1.000000000000000,1.000000000000000,Lincoln Family Downtown YMCA - PHX350 DROP-IN CENTER,350 N. 1st Ave. Phoenix 85003,350 N 1st Ave,Phoenix,AZ,85003,Mo-Su 9am-6pm*,09:00am - 06:00pm,09:00am - 06:00pm,09:00am - 06:00pm,09:00am - 06:00pm,09:00am - 06:00pm,09:00am - 06:00pm,09:00am - 06:00pm,602-885-8962,350,,,,,North,1st,Avenue,,350 North 1st Avenue,-112.075522454490994,33.452921897849002,-112.075522454490994,33.452921897849002,-112.076522454490998,-112.074522454491003,33.451921897848997,33.453921897849000,350 N 1st Ave,,
FaID.0082,Respite Center,1.000000000000000,1.000000000000000,1.000000000000000,1.000000000000000,1.000000000000000,1.000000000000000,1.000000000000000,1.000000000000000,Southwest Behavioral & Health Services - Community Resilience Center (CRC),4431 N. 27th Ave. Phoenix 85017,4431 N 27th Ave,Phoenix,AZ,85017,Mo-Fr 7:30am-3:30pm*,07:30am - 03:30pm,07:30am - 03:30pm,07:30am - 03:30pm,07:30am - 03:30pm,07:30am - 03:30pm,closed,closed,480-319-5572,4431,,,,,North,27th,Avenue,,4431 North 27th Avenue,-112.116564527207998,33.501834032825002,-112.116564527207998,33.501834032825002,-112.117564527208003,-112.115564527207994,33.500834032824997,33.502834032825000,4431 N 27th Ave,,
FaID.0083,Respite Center,1.000000000000000,1.000000000000000,1.000000000000000,1.000000000000000,1.000000000000000,1.000000000000000,1.000000000000000,1.000000000000000,Glendale Mission & Ministry Center+,6242 N. 59th Ave. Glendale 85301,6242 N 59th Ave,Glendale,AZ,85301,Mo-Sa 12pm-8pm,12:00pm - 08:00pm,12:00pm - 08:00pm,12:00pm - 08:00pm,12:00pm - 08:00pm,12:00pm - 08:00pm,12:00pm - 08:00pm,closed,951-454-3686,6242,,,,,North,59th,Avenue,,6242 North 59th Avenue,-112.187387082813004,33.528723010573998,-112.187387082813004,33.528723010573998,-112.188387082812994,-112.186387082812999,33.527723010574000,33.529723010574003,6242 N 59th Ave,,
FaID.0084,Respite Center,1.000000000000000,1.000000000000000,1.000000000000000,1.000000000000000,1.000000000000000,1.000000000000000,1.000000000000000,1.000000000000000,St Johns Lutheran Church+,7205 N. 51st Ave Glendale 85301,7205 N 51st Ave,Glendale,AZ,85301,Mo-Fr 12pm-8pm,12:00pm - 08:00pm,12:00pm - 08:00pm,12:00pm - 08:00pm,12:00pm - 08:00pm,12:00pm - 08:00pm,closed,closed,951-454-3686,7205,,,,,North,51st,Avenue,,7205 North 51st Avenue,-112.167836712750997,33.542562831912001,-112.167836712750997,33.542562831912001,-112.168836712751002,-112.166836712751007,33.541562831912003,33.543562831911999,7205 N 51st Ave,,
FaID.0085,Respite Center,1.000000000000000,1.000000000000000,1.000000000000000,1.000000000000000,1.000000000000000,1.000000000000000,1.000000000000000,1.000000000000000,Wesley United Methodist Church+,750 E. Southern Ave. Phoenix 85040,750 E Southern Ave,Phoenix,AZ,85040,Mo-Fr 12pm-6pm*,12:00pm - 06:00pm,12:00pm - 06:00pm,12:00pm - 06:00pm,12:00pm - 06:00pm,12:00pm - 06:00pm,closed,closed,951-454-3686,750,,,,,East,Southern,Avenue,,750 East Southern Avenue,-112.062441656394995,33.392616870529999,-112.062441656394995,33.392616870529999,-112.063441656395000,-112.061441656395004,33.391616870530001,33.393616870530003,750 E Southern Ave,,
FaID.0087,Respite Center,1.000000000000000,1.000000000000000,1.000000000000000,1.000000000000000,1.000000000000000,1.000000000000000,1.000000000000000,1.000000000000000,The Salvation Army - Chandler Corps+,85 E. Saragosa St. Chandler 85225,85 E Saragosa St,Chandler,AZ,85225,Mo-Sa 9am-7pm*,09:00am - 07:00pm,09:00am - 07:00pm,09:00am - 07:00pm,09:00am - 07:00pm,09:00am - 07:00pm,09:00am - 07:00pm,closed,602-267-4173,85,,,,,East,Saragosa,Street,,85 East Saragosa Street,-111.839936744347000,33.294557865381002,-111.839936744347000,33.294557865381002,-111.840936744347005,-111.838936744346995,33.293557865380997,33.295557865380999,85 E Saragosa St,,
FaID.0088,Respite Center,1.000000000000000,1.000000000000000,1.000000000000000,1.000000000000000,1.000000000000000,1.000000000000000,1.000000000000000,1.000000000000000,Society of St. Vincent de Paul - Sunnyslope Family Services Center,914 W. Hatcher Rd. Phoenix 85021,914 W Hatcher Rd,Phoenix,AZ,85021,Mo-Fr 8am-5pm*,08:00am - 05:00pm,08:00am - 05:00pm,08:00am - 05:00pm,08:00am - 05:00pm,08:00am - 05:00pm,closed,closed,602-475-6677,914,,,,,West,Hatcher,Road,,914 West Hatcher Road,-112.085665395522994,33.572255807730002,-112.085665395522994,33.572255807730002,-112.086665395522999,-112.084665395523004,33.571255807729997,33.573255807730000,914 W Hatcher Rd,,
FaID.0089,Respite Center,1.000000000000000,1.000000000000000,1.000000000000000,1.000000000000000,1.000000000000000,1.000000000000000,1.000000000000000,1.000000000000000,City of Phoenix - Senior Opportunities West Senior Center,1220 S. 7th Ave. Phoenix 85007,1220 S 7th Ave,Phoenix,AZ,85007,Mo-Fr (pm hours) 6pm-11:59pm,06:00pm - 11:59pm,12:00am - 06:00am; 06:00pm - 11:59pm,12:00am - 06:00am; 06:00pm - 11:59pm,12:00am - 06:00am; 06:00pm - 11:59pm,12:00am - 06:00am; 06:00pm - 11:59pm,12:00am - 06:00am,closed,602-534-7657,1220,1170,1230,1170-1230,R,S,7th,Ave,,1220 S 7th Ave,-112.082574472839994,33.435563337436001,-112.082574472839994,33.435563337436001,-112.083574472839999,-112.081574472840003,33.434563337436003,33.436563337435999,1220 S 7th Ave,,
